NORAD_CAT_ID,OBJECT_NAME,OBJECT_TYPE,EPOCH,MEAN_MOTION,ECCENTRICITY,INCLINATION,RA_OF_ASC_NODE,ARG_OF_PERICENTER,MEAN_ANOMALY,BSTAR,MEAN_MOTION_DOT,MEAN_MOTION_DDOT,TLE_LINE0,TLE_LINE1,TLE_LINE2,SEMIMAJOR_AXIS,PERIOD,APOGEE,PERIGEE,DECAYED
51105.0,STARLINK-3350,PAYLOAD,2022-07-12 15:38:11,15.08833257,0.0002842,53.2183,166.84,56.9689,303.1576,0.00015186,2.129e-05,0.0,0 STARLINK-3350,1 51105U 22005B   22193.65152400  .00002129  00000-0  15186-3 0  9999,2 51105  53.2183 166.8400 0002842  56.9689 303.1576 15.08833257 28298,6917.901,95.438,541.732,537.8,0.0
51105.0,STARLINK-3350,PAYLOAD,2022-07-13 04:21:16,15.08842155,0.0002856999999999,53.2177,164.4608,58.1711,301.9559,0.00018016,2.58e-05,0.0,0 STARLINK-3350,1 51105U 22005B   22194.18143898  .00002580  00000-0  18016-3 0  9995,2 51105  53.2177 164.4608 0002857  58.1711 301.9559 15.08842155 28374,6917.874,95.437,541.715,537.762,0.0
51105.0,STARLINK-3350,PAYLOAD,2022-07-13 07:32:02,15.08844827,0.0002877,53.2176,163.8658,58.7049,301.4224,0.00017757,2.539e-05,0.0,0 STARLINK-3350,1 51105U 22005B   22194.31391737  .00002539  00000-0  17757-3 0  9992,2 51105  53.2176 163.8658 0002877  58.7049 301.4224 15.08844827 27284,6917.866,95.437,541.721,537.74,0.0
51105.0,STARLINK-3350,PAYLOAD,2022-07-13 15:28:57,15.08851252,0.0002911,53.218,162.3796,58.8485,301.2792,0.00017732,2.536e-05,0.0,0 STARLINK-3350,1 51105U 22005B   22194.64511258  .00002536  00000-0  17732-3 0  9990,2 51105  53.2180 162.3796 0002911  58.8485 301.2792 15.08851252 28447,6917.846,95.437,541.725,537.697,0.0
51105.0,STARLINK-3350,PAYLOAD,2022-07-14 04:12:03,15.088425099999998,0.0002917,53.2185,160.001,61.3202,298.8083,9.1637e-05,1.17e-05,0.0,0 STARLINK-3350,1 51105U 22005B   22195.17503998  .00001170  00000-0  91637-4 0  9991,2 51105  53.2185 160.0010 0002917  61.3202 298.8083 15.08842510 28528,6917.873000000001,95.437,541.756,537.72,0.0
51105.0,STARLINK-3350,PAYLOAD,2022-07-14 05:47:26,15.08843274,0.0002904,53.2183,159.7034,61.7593,298.3692,7.7678e-05,9.48e-06,0.0,0 STARLINK-3350,1 51105U 22005B   22195.24127974  .00000948  00000-0  77678-4 0  9996,2 51105  53.2183 159.7034 0002904  61.7593 298.3692 15.08843274 27427,6917.87,95.437,541.744,537.726,0.0
51105.0,STARLINK-3350,PAYLOAD,2022-07-14 20:05:55,15.08840017,0.0002901,53.2184,157.0273,63.1548,296.9741,-6.3899e-06,-3.9e-06,0.0,0 STARLINK-3350,1 51105U 22005B   22195.83744297 -.00000390  00000-0 -63899-5 0  9998,2 51105  53.2184 157.0273 0002901  63.1548 296.9741 15.08840017 27518,6917.88,95.438,541.752,537.738,0.0
51105.0,STARLINK-3350,PAYLOAD,2022-07-15 07:13:36,15.0884312,0.000291,53.2181,154.9454,62.2995,297.8292,-3.8392e-05,-9e-06,0.0,0 STARLINK-3350,1 51105U 22005B   22196.30112120 -.00000900  00000-0 -38392-4 0  9991,2 51105  53.2181 154.9454 0002910  62.2995 297.8292 15.08843120 28697,6917.871,95.437,541.749,537.7230000000002,0.0
51105.0,STARLINK-3350,PAYLOAD,2022-07-16 03:53:36,15.08849782,0.0002864,53.2183,151.0798,63.2068,296.9217,0.00011511,1.544e-05,0.0,0 STARLINK-3350,1 51105U 22005B   22197.16222850  .00001544  00000-0  11511-3 0  9994,2 51105  53.2183 151.0798 0002864  63.2068 296.9217 15.08849782 28820,6917.85,95.437,541.697,537.734,0.0
51105.0,STARLINK-3350,PAYLOAD,2022-07-16 07:04:23,15.08840736,0.0002787,53.2179,150.4857,61.622,298.5053,2.8868e-05,1.71e-06,0.0,0 STARLINK-3350,1 51105U 22005B   22197.29471660  .00000171  00000-0  28868-4 0  9992,2 51105  53.2179 150.4857 0002787  61.6220 298.5053 15.08840736 27735,6917.878000000002,95.438,541.6709999999998,537.815,0.0
51105.0,STARLINK-3350,PAYLOAD,2022-07-16 19:47:28,15.08843556,0.0002705,53.2175,148.1066,60.4565,299.6696,0.00010947,1.454e-05,0.0,0 STARLINK-3350,1 51105U 22005B   22197.82463291  .00001454  00000-0  10947-3 0  9995,2 51105  53.2175 148.1066 0002705  60.4565 299.6696 15.08843556 27813,6917.87,95.437,541.606,537.863,0.0
51105.0,STARLINK-3350,PAYLOAD,2022-07-17 13:16:43,15.08842023,0.0002727,53.2185,144.8358,61.5257,298.601,6.5763e-05,7.58e-06,0.0,0 STARLINK-3350,1 51105U 22005B   22198.55327603  .00000758  00000-0  65763-4 0  9995,2 51105  53.2185 144.8358 0002727  61.5257 298.6010 15.08842023 27924,6917.874,95.437,541.626,537.8530000000002,0.0
51105.0,STARLINK-3350,PAYLOAD,2022-07-17 19:38:15,15.08847466,0.0002673,53.2182,143.64600000000004,64.1121,296.0146,6.7745e-05,7.9e-06,0.0,0 STARLINK-3350,1 51105U 22005B   22198.81823141  .00000790  00000-0  67745-4 0  9990,2 51105  53.2182 143.6460 0002673  64.1121 296.0146 15.08847466 27963,6917.858,95.437,541.572,537.873,0.0
51105.0,STARLINK-3350,PAYLOAD,2022-07-18 13:07:30,15.08840745,0.0002622,53.2181,140.3751,62.0838,298.0419,5.9071e-05,6.52e-06,0.0,0 STARLINK-3350,1 51105U 22005B   22199.54687569  .00000652  00000-0  59071-4 0  9993,2 51105  53.2181 140.3751 0002622  62.0838 298.0419 15.08840745 28076,6917.878000000002,95.438,541.557,537.929,0.0
51105.0,STARLINK-3350,PAYLOAD,2022-07-18 19:29:02,15.08844703,0.000254,53.2183,139.1854,60.8449,299.2797,8.600200000000001e-05,1.081e-05,0.0,0 STARLINK-3350,1 51105U 22005B   22199.81183227  .00001081  00000-0  86002-4 0  9996,2 51105  53.2183 139.1854 0002540  60.8449 299.2797 15.08844703 29229,6917.866,95.437,541.488,537.974,0.0
51105.0,STARLINK-3350,PAYLOAD,2022-07-19 12:58:17,15.0882732,0.0002613,53.219,135.9152,66.6892,293.4375,0.00022839,3.347e-05,0.0,0 STARLINK-3350,1 51105U 22005B   22200.54048249  .00003347  00000-0  22839-3 0  9997,2 51105  53.2190 135.9152 0002613  66.6892 293.4375 15.08827320 29335,6917.919,95.438,541.592,537.976,0.0
51105.0,STARLINK-3350,PAYLOAD,2022-07-19 20:55:12,15.0884389,0.0002647,53.2177,134.4291,62.1753,297.9507,5.4862e-05,5.85e-06,0.0,0 STARLINK-3350,1 51105U 22005B   22200.87167154  .00000585  00000-0  54862-4 0  9993,2 51105  53.2177 134.4291 0002647  62.1753 297.9507 15.08843890 28270,6917.868,95.437,541.565,537.9019999999998,0.0
51105.0,STARLINK-3350,PAYLOAD,2022-07-20 12:49:04,15.08838395,0.0002463,53.2175,131.4551,61.8711,298.253,7.0296e-05,8.31e-06,0.0,0 STARLINK-3350,1 51105U 22005B   22201.53407488  .00000831  00000-0  70296-4 0  9997,2 51105  53.2175 131.4551 0002463  61.8711 298.2530 15.08838395 29488,6917.885,95.438,541.4540000000002,538.0459999999998,0.0
51105.0,STARLINK-3350,PAYLOAD,2022-07-21 04:42:56,15.08832938,0.0002336999999999,53.218,128.4825,58.3946,301.7274,-7.133399999999999e-05,-1.423e-05,0.0,0 STARLINK-3350,1 51105U 22005B   22202.19648354 -.00001423  00000-0 -71334-4 0  9993,2 51105  53.2180 128.4825 0002337  58.3946 301.7274 15.08832938 29588,6917.901999999999,95.438,541.384,538.15,0.0
51105.0,STARLINK-3350,PAYLOAD,2022-07-21 12:39:52,15.08828113,0.0002133999999999,53.218,126.996,61.5298,298.5909,6.9635e-06,-1.77e-06,0.0,0 STARLINK-3350,1 51105U 22005B   22202.52768575 -.00000177  00000-0  69635-5 0  9994,2 51105  53.2180 126.9960 0002134  61.5298 298.5909 15.08828113 28523,6917.917,95.438,541.258,538.305,0.0
51105.0,STARLINK-3350,PAYLOAD,2022-07-22 04:33:42,15.08843293,0.0002278999999999,53.2187,124.0213,64.3894,295.7333,2.8588e-05,1.67e-06,0.0,0 STARLINK-3350,1 51105U 22005B   22203.19008058  .00000167  00000-0  28588-4 0  9990,2 51105  53.2187 124.0213 0002279  64.3894 295.7333 15.08843293 29733,6917.87,95.437,541.312,538.159,0.0
51105.0,STARLINK-3350,PAYLOAD,2022-07-22 20:27:34,15.08841967,0.0002045999999999,53.2182,121.0478,61.8755,298.2444,0.00016234,2.297e-05,0.0,0 STARLINK-3350,1 51105U 22005B   22203.85247718  .00002297  00000-0  16234-3 0  9991,2 51105  53.2182 121.0478 0002046  61.8755 298.2444 15.08841967 28723,6917.874,95.437,541.155,538.3240000000002,0.0
51105.0,STARLINK-3350,PAYLOAD,2022-07-23 01:13:43,15.08839353,0.0002143,53.2189,120.1563,66.4941,293.6276,0.00013749,1.901e-05,0.0,0 STARLINK-3350,1 51105U 22005B   22204.05120137  .00001901  00000-0  13749-3 0  9998,2 51105  53.2189 120.1563 0002143  66.4941 293.6276 15.08839353 28752,6917.882,95.438,541.23,538.265,0.0
51105.0,STARLINK-3350,PAYLOAD,2022-07-23 18:42:58,15.08838374,0.0002089999999999,53.2182,116.8849,63.4904,296.6302,0.00018462,2.651e-05,0.0,0 STARLINK-3350,1 51105U 22005B   22204.77984264  .00002651  00000-0  18462-3 0  9996,2 51105  53.2182 116.8849 0002090  63.4904 296.6302 15.08838374 28868,6917.885,95.438,541.196,538.305,0.0
51105.0,STARLINK-3350,PAYLOAD,2022-07-24 10:36:50,15.08827558,0.000193,53.2183,113.9123,60.1917,299.9266,-6.2379e-05,-1.28e-05,0.0,0 STARLINK-3350,1 51105U 22005B   22205.44225681 -.00001280  00000-0 -62379-4 0  9998,2 51105  53.2183 113.9123 0001930  60.1917 299.9266 15.08827558 30075,6917.918000000002,95.438,541.119,538.448,0.0
51105.0,STARLINK-3350,PAYLOAD,2022-07-24 18:33:46,15.08830453,0.0001837,53.218,112.4249,59.3676,300.7497,-1.8026e-05,-5.75e-06,0.0,0 STARLINK-3350,1 51105U 22005B   22205.77345367 -.00000575  00000-0 -18026-4 0  9994,2 51105  53.2180 112.4249 0001837  59.3676 300.7497 15.08830453 29010,6917.91,95.438,541.045,538.504,0.0
51105.0,STARLINK-3350,PAYLOAD,2022-07-25 04:06:05,15.0883482,0.0001885999999999,53.2185,110.6408,60.9843,299.1338,2.1616e-05,5.6e-07,0.0,0 STARLINK-3350,1 51105U 22005B   22206.17089178  .00000056  00000-0  21616-4 0  9995,2 51105  53.2185 110.6408 0001886  60.9843 299.1338 15.08834820 30187,6917.896,95.438,541.066,538.457,0.0
51105.0,STARLINK-3350,PAYLOAD,2022-07-25 19:59:56,15.08838205,0.0001853,53.2186,107.6673,58.9572,301.1602,7.8928e-05,9.68e-06,0.0,0 STARLINK-3350,1 51105U 22005B   22206.83328897  .00000968  00000-0  78928-4 0  9992,2 51105  53.2186 107.6673 0001853  58.9572 301.1602 15.08838205 29174,6917.886,95.438,541.033,538.469,0.0
51105.0,STARLINK-3350,PAYLOAD,2022-07-26 02:21:28,15.08841691,0.0001867,53.2185,106.4779,59.5812,300.5364,0.00010355,1.36e-05,0.0,0 STARLINK-3350,1 51105U 22005B   22207.09824648  .00001360  00000-0  10355-3 0  9992,2 51105  53.2185 106.4779 0001867  59.5812 300.5364 15.08841691 29212,6917.875,95.437,541.0319999999998,538.4490000000002,0.0
